ONEWEB-0230             
1 48769U 21045C   23360.60368992  .00000274  00000+0  69340-3 0  9990
2 48769  87.9003  79.1307 0001614 112.8672 247.2629 13.15552800125863
ONEWEB-0237             
1 48770U 21045D   23360.59258299  .00000068  00000+0  14552-3 0  9994
2 48770  87.9009  79.0534 0001893 120.3781 239.7537 13.15548534125588
ONEWEB-0235             
1 48771U 21045E   23360.26299690 -.00000012  00000+0 -64841-4 0  9997
2 48771  87.9000  79.1429 0001977 130.4579 229.6724 13.15548643125536
ONEWEB-0242             
1 48772U 21045F   23360.78906044 -.00000064  00000+0 -20311-3 0  9993
2 48772  87.8998  79.0279 0001714 115.3793 244.7515 13.15548702126772
ONEWEB-0241             
1 48773U 21045G   23360.24398440  .00000032  00000+0  50230-4 0  9997
2 48773  87.9009  79.1672 0002207 113.0735 247.0628 13.15549727125480
ONEWEB-0243             
1 48774U 21045H   23360.73201257 -.00000218  00000+0 -61297-3 0  9993
2 48774  87.9005  79.0270 0001678 119.9408 240.1889 13.15548927126703
ONEWEB-0222             
1 48775U 21045J   23360.26618867 -.00000033  00000+0 -12210-3 0  9997
2 48775  87.8997  79.1463 0001963 113.7492 246.3844 13.15547432125551
ONEWEB-0244             
1 48776U 21045K   23360.58943108  .00005225  00000+0  13840-1 0  9996
2 48776  87.8995  79.0636 0001727 113.2759 246.8553 13.15530165126165
